{"type": "FeatureCollection", "features": [ {"type": "Feature", "properties": {"norad_id": 42741, "name": "EUTELSAT 172B", "group": "eutelsat", "lat": 0.008431934177049044, "lon": 76.6159497900129, "alt_km": 35785.39664904994, "timestamp": "2025-12-22T11:33:20.100784+00:00", "meta": {"OBJECT_NAME": "EUTELSAT 172B", "OBJECT_ID": "2017-029B", "EPOCH": "2025-12-22T01:59:57.279840", "MEAN_MOTION": 1.00271306, "ECCENTRICITY": 2.12e-05, "INCLINATION": 0.0306, "RA_OF_ASC_NODE": 121.1133, "ARG_OF_PERICENTER": 342.1926, "MEAN_ANOMALY": 189.5815, "EPHEMERIS_TYPE": 0, "CLASSIFICATION_TYPE": "U", "NORAD_CAT_ID": 42741, "ELEMENT_SET_NO": 999, "REV_AT_EPOCH": 3195, "BSTAR": 0, "MEAN_MOTION_DOT": 1.6e-07, "MEAN_MOTION_DDOT": 0}, "tle": {"line1": "1 42741U 17029B   25356.08330185  .00000016  00000+0  00000+0 0  9991", "line2": "2 42741   0.0306 121.1133 0000212 342.1926 189.5815  1.00271306 31958"}}, "geometry": {"type": "Point", "coordinates": [76.6159497900129, 0.008431934177049044]}}, {"type": "Feature", "properties": {"norad_id": 44334, "name": "EUTELSAT 7C", "group": "eutelsat", "lat": 0.04663599972515378, "lon": -88.39713763387108, "alt_km": 35773.80669040397, "timestamp": "2025-12-22T11:33:20.100796+00:00", "meta": {"OBJECT_NAME": "EUTELSAT 7C", "OBJECT_ID": "2019-034B", "EPOCH": "2025-12-22T03:54:38.524032", "MEAN_MOTION": 1.00270429, "ECCENTRICITY": 0.0003102, "INCLINATION": 0.0729, "RA_OF_ASC_NODE": 180.3118, "ARG_OF_PERICENTER": 75.1349, "MEAN_ANOMALY": 261.1679, "EPHEMERIS_TYPE": 0, "CLASSIFICATION_TYPE": "U", "NORAD_CAT_ID": 44334, "ELEMENT_SET_NO": 999, "REV_AT_EPOCH": 506, "BSTAR": 0, "MEAN_MOTION_DOT": 7e-07, "MEAN_MOTION_DDOT": 0}, "tle": {"line1": "1 44334U 19034B   25356.16294588  .00000070  00000+0  00000+0 0  9994", "line2": "2 44334   0.0729 180.3118 0003102  75.1349 261.1679  1.00270429  5063"}}, "geometry": {"type": "Point", "coordinates": [-88.39713763387108, 0.04663599972515378]}}, {"type": "Feature", "properties": {"norad_id": 44624, "name": "EUTELSAT 5 WEST B", "group": "eutelsat", "lat": -0.08772305787050808, "lon": -100.39109933814112, "alt_km": 35773.601162809806, "timestamp": "2025-12-22T11:33:20.100807+00:00", "meta": {"OBJECT_NAME": "EUTELSAT 5 WEST B", "OBJECT_ID": "2019-067A", "EPOCH": "2025-12-22T01:09:25.401024", "MEAN_MOTION": 1.00271362, "ECCENTRICITY": 0.0003028, "INCLINATION": 0.0656, "RA_OF_ASC_NODE": 337.8053, "ARG_OF_PERICENTER": 292.6481, "MEAN_ANOMALY": 192.7653, "EPHEMERIS_TYPE": 0, "CLASSIFICATION_TYPE": "U", "NORAD_CAT_ID": 44624, "ELEMENT_SET_NO": 999, "REV_AT_EPOCH": 2266, "BSTAR": 0, "MEAN_MOTION_DOT": -2e-07, "MEAN_MOTION_DDOT": 0}, "tle": {"line1": "1 44624U 19067A   25356.04821066 -.00000020  00000+0  00000+0 0  9992", "line2": "2 44624   0.0656 337.8053 0003028 292.6481 192.7653  1.00271362 22664"}}, "geometry": {"type": "Point", "coordinates": [-100.39109933814112, -0.08772305787050808]}}, {"type": "Feature", "properties": {"norad_id": 45027, "name": "EUTELSAT KONNECT", "group": "eutelsat", "lat": -0.021033397879033307, "lon": -88.18633046144491, "alt_km": 35780.67273453772, "timestamp": "2025-12-22T11:33:20.100818+00:00", "meta": {"OBJECT_NAME": "EUTELSAT KONNECT", "OBJECT_ID": "2020-005B", "EPOCH": "2025-12-22T03:54:38.524032", "MEAN_MOTION": 1.00271218, "ECCENTRICITY": 0.0001319, "INCLINATION": 0.0707, "RA_OF_ASC_NODE": 94.5088, "ARG_OF_PERICENTER": 184.2033, "MEAN_ANOMALY": 238.124, "EPHEMERIS_TYPE": 0, "CLASSIFICATION_TYPE": "U", "NORAD_CAT_ID": 45027, "ELEMENT_SET_NO": 999, "REV_AT_EPOCH": 2256, "BSTAR": 0, "MEAN_MOTION_DOT": 7.1e-07, "MEAN_MOTION_DDOT": 0}, "tle": {"line1": "1 45027U 20005B   25356.16294588  .00000071  00000+0  00000+0 0  9995", "line2": "2 45027   0.0707  94.5088 0001319 184.2033 238.1240  1.00271218 22560"}}, "geometry": {"type": "Point", "coordinates": [-88.18633046144491, -0.021033397879033307]}}, {"type": "Feature", "properties": {"norad_id": 49056, "name": "EUTELSAT QUANTUM", "group": "eutelsat", "lat": -0.027318463600984364, "lon": -47.65936023837394, "alt_km": 35773.46668958609, "timestamp": "2025-12-22T11:33:20.100829+00:00", "meta": {"OBJECT_NAME": "EUTELSAT QUANTUM", "OBJECT_ID": "2021-069B", "EPOCH": "2025-12-22T03:07:13.338336", "MEAN_MOTION": 1.00271936, "ECCENTRICITY": 0.0003462, "INCLINATION": 0.0106, "RA_OF_ASC_NODE": 358.3448, "ARG_OF_PERICENTER": 282.7947, "MEAN_ANOMALY": 264.313, "EPHEMERIS_TYPE": 0, "CLASSIFICATION_TYPE": "U", "NORAD_CAT_ID": 49056, "ELEMENT_SET_NO": 999, "REV_AT_EPOCH": 1615, "BSTAR": 0, "MEAN_MOTION_DOT": 1.48e-06, "MEAN_MOTION_DDOT": 0}, "tle": {"line1": "1 49056U 21069B   25356.13001549  .00000148  00000+0  00000+0 0  9997", "line2": "2 49056   0.0106 358.3448 0003462 282.7947 264.3130  1.00271936 16153"}}, "geometry": {"type": "Point", "coordinates": [-47.65936023837394, -0.027318463600984364]}}, {"type": "Feature", "properties": {"norad_id": 53765, "name": "EUTELSAT KONNECT VHTS", "group": "eutelsat", "lat": -0.012044084381779835, "lon": -92.63269598140069, "alt_km": 35777.111270552225, "timestamp": "2025-12-22T11:33:20.100841+00:00", "meta": {"OBJECT_NAME": "EUTELSAT KONNECT VHTS", "OBJECT_ID": "2022-110A", "EPOCH": "2025-12-21T13:12:40.176000", "MEAN_MOTION": 1.00270894, "ECCENTRICITY": 0.0002618, "INCLINATION": 0.0618, "RA_OF_ASC_NODE": 99.3714, "ARG_OF_PERICENTER": 133.7511, "MEAN_ANOMALY": 58.1537, "EPHEMERIS_TYPE": 0, "CLASSIFICATION_TYPE": "U", "NORAD_CAT_ID": 53765, "ELEMENT_SET_NO": 999, "REV_AT_EPOCH": 504, "BSTAR": 0, "MEAN_MOTION_DOT": 4e-07, "MEAN_MOTION_DDOT": 0}, "tle": {"line1": "1 53765U 22110A   25355.55046500  .00000040  00000+0  00000+0 0  9999", "line2": "2 53765   0.0618  99.3714 0002618 133.7511  58.1537  1.00270894  5043"}}, "geometry": {"type": "Point", "coordinates": [-92.63269598140069, -0.012044084381779835]}}, {"type": "Feature", "properties": {"norad_id": 54048, "name": "EUTELSAT HOTBIRD 13F", "group": "eutelsat", "lat": -0.03390344910208149, "lon": -82.41607787162738, "alt_km": 35785.425138424565, "timestamp": "2025-12-22T11:33:20.100852+00:00", "meta": {"OBJECT_NAME": "EUTELSAT HOTBIRD 13F", "OBJECT_ID": "2022-134A", "EPOCH": "2025-12-21T21:49:07.084128", "MEAN_MOTION": 1.00271763, "ECCENTRICITY": 0.0002281, "INCLINATION": 0.0525, "RA_OF_ASC_NODE": 292.4073, "ARG_OF_PERICENTER": 71.4737, "MEAN_ANOMALY": 67.1177, "EPHEMERIS_TYPE": 0, "CLASSIFICATION_TYPE": "U", "NORAD_CAT_ID": 54048, "ELEMENT_SET_NO": 999, "REV_AT_EPOCH": 1160, "BSTAR": 0, "MEAN_MOTION_DOT": 1.09e-06, "MEAN_MOTION_DDOT": 0}, "tle": {"line1": "1 54048U 22134A   25355.90910977  .00000109  00000+0  00000+0 0  9993", "line2": "2 54048   0.0525 292.4073 0002281  71.4737  67.1177  1.00271763 11608"}}, "geometry": {"type": "Point", "coordinates": [-82.41607787162738, -0.03390344910208149]}}, {"type": "Feature", "properties": {"norad_id": 54225, "name": "EUTELSAT HOTBIRD 13G", "group": "eutelsat", "lat": -0.0012949754920214308, "lon": -82.38092029165247, "alt_km": 35788.080073985344, "timestamp": "2025-12-22T11:33:20.100864+00:00", "meta": {"OBJECT_NAME": "EUTELSAT HOTBIRD 13G", "OBJECT_ID": "2022-146A", "EPOCH": "2025-12-21T21:49:07.084128", "MEAN_MOTION": 1.0026968, "ECCENTRICITY": 0.0001616, "INCLINATION": 0.0526, "RA_OF_ASC_NODE": 226.0316, "ARG_OF_PERICENTER": 309.1853, "MEAN_ANOMALY": 255.7772, "EPHEMERIS_TYPE": 0, "CLASSIFICATION_TYPE": "U", "NORAD_CAT_ID": 54225, "ELEMENT_SET_NO": 999, "REV_AT_EPOCH": 568, "BSTAR": 0, "MEAN_MOTION_DOT": 1.09e-06, "MEAN_MOTION_DDOT": 0}, "tle": {"line1": "1 54225U 22146A   25355.90910977  .00000109  00000+0  00000+0 0  9993", "line2": "2 54225   0.0526 226.0316 0001616 309.1853 255.7772  1.00269680  5682"}}, "geometry": {"type": "Point", "coordinates": [-82.38092029165247, -0.0012949754920214308]}}, {"type": "Feature", "properties": {"norad_id": 54259, "name": "EUTELSAT 10B", "group": "eutelsat", "lat": -0.021914546679430214, "lon": -85.36509057723784, "alt_km": 35788.86653563481, "timestamp": "2025-12-22T11:33:20.100875+00:00", "meta": {"OBJECT_NAME": "EUTELSAT 10B", "OBJECT_ID": "2022-157A", "EPOCH": "2025-12-22T03:28:38.502912", "MEAN_MOTION": 1.00273047, "ECCENTRICITY": 7.52e-05, "INCLINATION": 0.0597, "RA_OF_ASC_NODE": 96.7736, "ARG_OF_PERICENTER": 5.0056, "MEAN_ANOMALY": 51.3552, "EPHEMERIS_TYPE": 0, "CLASSIFICATION_TYPE": "U", "NORAD_CAT_ID": 54259, "ELEMENT_SET_NO": 999, "REV_AT_EPOCH": 1125, "BSTAR": 0, "MEAN_MOTION_DOT": 9.1e-07, "MEAN_MOTION_DDOT": 0}, "tle": {"line1": "1 54259U 22157A   25356.14489008  .00000091  00000+0  00000+0 0  9995", "line2": "2 54259   0.0597  96.7736 0000752   5.0056  51.3552  1.00273047 11250"}}, "geometry": {"type": "Point", "coordinates": [-85.36509057723784, -0.021914546679430214]}}, {"type": "Feature", "properties": {"norad_id": 59346, "name": "EUTELSAT 36D", "group": "eutelsat", "lat": -0.04600751262414226, "lon": -59.545705271147185, "alt_km": 35785.217576137664, "timestamp": "2025-12-22T11:33:20.100886+00:00", "meta": {"OBJECT_NAME": "EUTELSAT 36D", "OBJECT_ID": "2024-059A", "EPOCH": "2025-12-22T01:29:38.558112", "MEAN_MOTION": 1.00269849, "ECCENTRICITY": 7.6e-05, "INCLINATION": 0.0226, "RA_OF_ASC_NODE": 30.2034, "ARG_OF_PERICENTER": 334.9815, "MEAN_ANOMALY": 143.951, "EPHEMERIS_TYPE": 0, "CLASSIFICATION_TYPE": "U", "NORAD_CAT_ID": 59346, "ELEMENT_SET_NO": 999, "REV_AT_EPOCH": 637, "BSTAR": 0, "MEAN_MOTION_DOT": 0, "MEAN_MOTION_DDOT": 0}, "tle": {"line1": "1 59346U 24059A   25356.06225183  .00000000  00000+0  00000+0 0  9993", "line2": "2 59346   0.0226  30.2034 0000760 334.9815 143.9510  1.00269849  6375"}}, "geometry": {"type": "Point", "coordinates": [-59.545705271147185, -0.04600751262414226]}}]}